STARLINK-36544          
1 67517U 26012AA  26039.83335647 -.01936318  00000+0 -24611-1 0  9993
2 67517  42.9993 118.5659 0001405 284.6949 114.5734 15.61833527  4438
STARLINK-36412          
1 67518U 26012AB  26039.83335647 -.01904732  00000+0 -24920-1 0  9992
2 67518  42.9994 118.5409 0001518 282.9197 126.3292 15.61037593  4376
STARLINK-36415          
1 67519U 26012AC  26039.83335647 -.01911872  00000+0 -24829-1 0  9994
2 67519  42.9993 118.5148 0001541 282.2021 137.0566 15.61239918  4582
STARLINK-36547          
1 67520U 26012AD  26039.83335647 -.01898592  00000+0 -25008-1 0  9999
2 67520  42.9993 118.5600 0001592 283.7627 117.5954 15.60853527  4379
STARLINK-36444          
1 67521U 26012AE  26039.83335647 -.01905159  00000+0 -26779-1 0  9994
2 67521  42.9994 118.6532 0001599 278.5632  85.5084 15.59186380  4373
HULIANWANG DIGUI-146    
1 67522U 26013A   26039.52449169 -.00000016  00000+0  11615-3 0  9998
2 67522  50.0053 104.3195 0004000 343.5772  16.4993 13.82830030  2827
HULIANWANG DIGUI-147    
1 67523U 26013B   26039.37839769 -.00000018  00000+0  11370-3 0  9991
2 67523  50.0070 104.8767 0000803 347.2964  12.7911 13.83183237  2806
HULIANWANG DIGUI-148    
1 67524U 26013C   26039.51929608  .00000004  00000+0  13384-3 0  9991
2 67524  50.0181 104.3957 0002833 153.2013 206.9030 13.83304725  2829
HULIANWANG DIGUI-149    
1 67525U 26013D   26039.58893629 -.00000005  00000+0  12544-3 0  9991
2 67525  50.0066 103.9875 0001971  29.3196 330.7810 13.83393979  2835
HULIANWANG DIGUI-150    
1 67526U 26013E   26039.36624977 -.00000005  00000+0  12462-3 0  9995
2 67526  50.0180 104.9344 0003510 105.3679 254.7604 13.83594584  2827
HULIANWANG DIGUI-151    
1 67527U 26013F   26039.51069917  .00000023  00000+0  14767-3 0  9999
2 67527  50.0124 104.2601 0003801 119.5921 240.5354 13.84809384  2828
HULIANWANG DIGUI-152    
1 67528U 26013G   26039.36470613  .00000016  00000+0  14214-3 0  9991
2 67528  50.0066 104.7990 0000984  46.0388 314.0590 13.84453091  2807
