CCSDS_OMM_VERS = 2.0
CREATION_DATE  = 
ORIGINATOR     = 

OBJECT_NAME    = STARLINK-36544
OBJECT_ID      = 2026-012AA
CENTER_NAME    = EARTH
REF_FRAME      = TEME
TIME_SYSTEM    = UTC
MEAN_ELEMENT_THEORY = SGP/SGP4

EPOCH          = 2026-02-08T20:00:01.999008
MEAN_MOTION    = 15.61833527
ECCENTRICITY   = .0001405
INCLINATION    = 42.9993
RA_OF_ASC_NODE = 118.5659
ARG_OF_PERICENTER = 284.6949
MEAN_ANOMALY   = 114.5734

EPHEMERIS_TYPE = 0
CLASSIFICATION_TYPE = U
NORAD_CAT_ID   = 67517
ELEMENT_SET_NO = 999
REV_AT_EPOCH   = 443
BSTAR          = -.24611E-1
MEAN_MOTION_DOT = -.1936318E-1
MEAN_MOTION_DDOT = 0

CCSDS_OMM_VERS = 2.0
CREATION_DATE  = 
ORIGINATOR     = 

OBJECT_NAME    = STARLINK-36412
OBJECT_ID      = 2026-012AB
CENTER_NAME    = EARTH
REF_FRAME      = TEME
TIME_SYSTEM    = UTC
MEAN_ELEMENT_THEORY = SGP/SGP4

EPOCH          = 2026-02-08T20:00:01.999008
MEAN_MOTION    = 15.61037593
ECCENTRICITY   = .0001518
INCLINATION    = 42.9994
RA_OF_ASC_NODE = 118.5409
ARG_OF_PERICENTER = 282.9197
MEAN_ANOMALY   = 126.3292

EPHEMERIS_TYPE = 0
CLASSIFICATION_TYPE = U
NORAD_CAT_ID   = 67518
ELEMENT_SET_NO = 999
REV_AT_EPOCH   = 437
BSTAR          = -.2492E-1
MEAN_MOTION_DOT = -.1904732E-1
MEAN_MOTION_DDOT = 0

CCSDS_OMM_VERS = 2.0
CREATION_DATE  = 
ORIGINATOR     = 

OBJECT_NAME    = STARLINK-36415
OBJECT_ID      = 2026-012AC
CENTER_NAME    = EARTH
REF_FRAME      = TEME
TIME_SYSTEM    = UTC
MEAN_ELEMENT_THEORY = SGP/SGP4

EPOCH          = 2026-02-08T20:00:01.999008
MEAN_MOTION    = 15.61239918
ECCENTRICITY   = .0001541
INCLINATION    = 42.9993
RA_OF_ASC_NODE = 118.5148
ARG_OF_PERICENTER = 282.2021
MEAN_ANOMALY   = 137.0566

EPHEMERIS_TYPE = 0
CLASSIFICATION_TYPE = U
NORAD_CAT_ID   = 67519
ELEMENT_SET_NO = 999
REV_AT_EPOCH   = 458
BSTAR          = -.24829E-1
MEAN_MOTION_DOT = -.1911872E-1
MEAN_MOTION_DDOT = 0

CCSDS_OMM_VERS = 2.0
CREATION_DATE  = 
ORIGINATOR     = 

OBJECT_NAME    = STARLINK-36547
OBJECT_ID      = 2026-012AD
CENTER_NAME    = EARTH
REF_FRAME      = TEME
TIME_SYSTEM    = UTC
MEAN_ELEMENT_THEORY = SGP/SGP4

EPOCH          = 2026-02-08T20:00:01.999008
MEAN_MOTION    = 15.60853527
ECCENTRICITY   = .0001592
INCLINATION    = 42.9993
RA_OF_ASC_NODE = 118.5600
ARG_OF_PERICENTER = 283.7627
MEAN_ANOMALY   = 117.5954

EPHEMERIS_TYPE = 0
CLASSIFICATION_TYPE = U
NORAD_CAT_ID   = 67520
ELEMENT_SET_NO = 999
REV_AT_EPOCH   = 437
BSTAR          = -.25008E-1
MEAN_MOTION_DOT = -.1898592E-1
MEAN_MOTION_DDOT = 0

CCSDS_OMM_VERS = 2.0
CREATION_DATE  = 
ORIGINATOR     = 

OBJECT_NAME    = STARLINK-36444
OBJECT_ID      = 2026-012AE
CENTER_NAME    = EARTH
REF_FRAME      = TEME
TIME_SYSTEM    = UTC
MEAN_ELEMENT_THEORY = SGP/SGP4

EPOCH          = 2026-02-08T20:00:01.999008
MEAN_MOTION    = 15.59186380
ECCENTRICITY   = .0001599
INCLINATION    = 42.9994
RA_OF_ASC_NODE = 118.6532
ARG_OF_PERICENTER = 278.5632
MEAN_ANOMALY   = 85.5084

EPHEMERIS_TYPE = 0
CLASSIFICATION_TYPE = U
NORAD_CAT_ID   = 67521
ELEMENT_SET_NO = 999
REV_AT_EPOCH   = 437
BSTAR          = -.26779E-1
MEAN_MOTION_DOT = -.1905159E-1
MEAN_MOTION_DDOT = 0

CCSDS_OMM_VERS = 2.0
CREATION_DATE  = 
ORIGINATOR     = 

OBJECT_NAME    = HULIANWANG DIGUI-146
OBJECT_ID      = 2026-013A
CENTER_NAME    = EARTH
REF_FRAME      = TEME
TIME_SYSTEM    = UTC
MEAN_ELEMENT_THEORY = SGP/SGP4

EPOCH          = 2026-02-08T12:35:16.082016
MEAN_MOTION    = 13.82830030
ECCENTRICITY   = .0004
INCLINATION    = 50.0053
RA_OF_ASC_NODE = 104.3195
ARG_OF_PERICENTER = 343.5772
MEAN_ANOMALY   = 16.4993

EPHEMERIS_TYPE = 0
CLASSIFICATION_TYPE = U
NORAD_CAT_ID   = 67522
ELEMENT_SET_NO = 999
REV_AT_EPOCH   = 282
BSTAR          = .11615E-3
MEAN_MOTION_DOT = -.16E-6
MEAN_MOTION_DDOT = 0

CCSDS_OMM_VERS = 2.0
CREATION_DATE  = 
ORIGINATOR     = 

OBJECT_NAME    = HULIANWANG DIGUI-147
OBJECT_ID      = 2026-013B
CENTER_NAME    = EARTH
REF_FRAME      = TEME
TIME_SYSTEM    = UTC
MEAN_ELEMENT_THEORY = SGP/SGP4

EPOCH          = 2026-02-08T09:04:53.560416
MEAN_MOTION    = 13.83183237
ECCENTRICITY   = .00008033
INCLINATION    = 50.0070
RA_OF_ASC_NODE = 104.8767
ARG_OF_PERICENTER = 347.2964
MEAN_ANOMALY   = 12.7911

EPHEMERIS_TYPE = 0
CLASSIFICATION_TYPE = U
NORAD_CAT_ID   = 67523
ELEMENT_SET_NO = 999
REV_AT_EPOCH   = 280
BSTAR          = .11369919E-3
MEAN_MOTION_DOT = -.18E-6
MEAN_MOTION_DDOT = 0

CCSDS_OMM_VERS = 2.0
CREATION_DATE  = 
ORIGINATOR     = 

OBJECT_NAME    = HULIANWANG DIGUI-148
OBJECT_ID      = 2026-013C
CENTER_NAME    = EARTH
REF_FRAME      = TEME
TIME_SYSTEM    = UTC
MEAN_ELEMENT_THEORY = SGP/SGP4

EPOCH          = 2026-02-08T12:27:47.181312
MEAN_MOTION    = 13.83304725
ECCENTRICITY   = .0002833
INCLINATION    = 50.0181
RA_OF_ASC_NODE = 104.3957
ARG_OF_PERICENTER = 153.2013
MEAN_ANOMALY   = 206.9030

EPHEMERIS_TYPE = 0
CLASSIFICATION_TYPE = U
NORAD_CAT_ID   = 67524
ELEMENT_SET_NO = 999
REV_AT_EPOCH   = 282
BSTAR          = .13384E-3
MEAN_MOTION_DOT = .4E-7
MEAN_MOTION_DDOT = 0

CCSDS_OMM_VERS = 2.0
CREATION_DATE  = 
ORIGINATOR     = 

OBJECT_NAME    = HULIANWANG DIGUI-149
OBJECT_ID      = 2026-013D
CENTER_NAME    = EARTH
REF_FRAME      = TEME
TIME_SYSTEM    = UTC
MEAN_ELEMENT_THEORY = SGP/SGP4

EPOCH          = 2026-02-08T14:08:04.095456
MEAN_MOTION    = 13.83393979
ECCENTRICITY   = .0001971
INCLINATION    = 50.0066
RA_OF_ASC_NODE = 103.9875
ARG_OF_PERICENTER = 29.3196
MEAN_ANOMALY   = 330.7810

EPHEMERIS_TYPE = 0
CLASSIFICATION_TYPE = U
NORAD_CAT_ID   = 67525
ELEMENT_SET_NO = 999
REV_AT_EPOCH   = 283
BSTAR          = .12544E-3
MEAN_MOTION_DOT = -.5E-7
MEAN_MOTION_DDOT = 0

CCSDS_OMM_VERS = 2.0
CREATION_DATE  = 
ORIGINATOR     = 

OBJECT_NAME    = HULIANWANG DIGUI-150
OBJECT_ID      = 2026-013E
CENTER_NAME    = EARTH
REF_FRAME      = TEME
TIME_SYSTEM    = UTC
MEAN_ELEMENT_THEORY = SGP/SGP4

EPOCH          = 2026-02-08T08:47:23.980128
MEAN_MOTION    = 13.83594584
ECCENTRICITY   = .000351
INCLINATION    = 50.0180
RA_OF_ASC_NODE = 104.9344
ARG_OF_PERICENTER = 105.3679
MEAN_ANOMALY   = 254.7604

EPHEMERIS_TYPE = 0
CLASSIFICATION_TYPE = U
NORAD_CAT_ID   = 67526
ELEMENT_SET_NO = 999
REV_AT_EPOCH   = 282
BSTAR          = .12462E-3
MEAN_MOTION_DOT = -.5E-7
MEAN_MOTION_DDOT = 0

CCSDS_OMM_VERS = 2.0
CREATION_DATE  = 
ORIGINATOR     = 

OBJECT_NAME    = HULIANWANG DIGUI-151
OBJECT_ID      = 2026-013F
CENTER_NAME    = EARTH
REF_FRAME      = TEME
TIME_SYSTEM    = UTC
MEAN_ELEMENT_THEORY = SGP/SGP4

EPOCH          = 2026-02-08T12:15:24.408288
MEAN_MOTION    = 13.84809384
ECCENTRICITY   = .0003801
INCLINATION    = 50.0124
RA_OF_ASC_NODE = 104.2601
ARG_OF_PERICENTER = 119.5921
MEAN_ANOMALY   = 240.5354

EPHEMERIS_TYPE = 0
CLASSIFICATION_TYPE = U
NORAD_CAT_ID   = 67527
ELEMENT_SET_NO = 999
REV_AT_EPOCH   = 282
BSTAR          = .14767E-3
MEAN_MOTION_DOT = .23E-6
MEAN_MOTION_DDOT = 0

CCSDS_OMM_VERS = 2.0
CREATION_DATE  = 
ORIGINATOR     = 

OBJECT_NAME    = HULIANWANG DIGUI-152
OBJECT_ID      = 2026-013G
CENTER_NAME    = EARTH
REF_FRAME      = TEME
TIME_SYSTEM    = UTC
MEAN_ELEMENT_THEORY = SGP/SGP4

EPOCH          = 2026-02-08T08:45:10.609632
MEAN_MOTION    = 13.84453091
ECCENTRICITY   = .00009844
INCLINATION    = 50.0066
RA_OF_ASC_NODE = 104.7990
ARG_OF_PERICENTER = 46.0388
MEAN_ANOMALY   = 314.0590

EPHEMERIS_TYPE = 0
CLASSIFICATION_TYPE = U
NORAD_CAT_ID   = 67528
ELEMENT_SET_NO = 999
REV_AT_EPOCH   = 280
BSTAR          = .14213913E-3
MEAN_MOTION_DOT = .16E-6
MEAN_MOTION_DDOT = 0

